[{"OBJECT_NAME":"COSMOS 2515","OBJECT_ID":"2016-020A","EPOCH":"2026-03-09T23:19:22.597248","MEAN_MOTION":15.0760084,"ECCENTRICITY":0.00222602,"INCLINATION":97.9825,"RA_OF_ASC_NODE":80.7081,"ARG_OF_PERICENTER":278.8424,"MEAN_ANOMALY":81.0282,"EPHEMERIS_TYPE":0,"CLASSIFICATION_TYPE":"U","NORAD_CAT_ID":41394,"ELEMENT_SET_NO":999,"REV_AT_EPOCH":54546,"BSTAR":0.00011725414,"MEAN_MOTION_DOT":1.724e-5,"MEAN_MOTION_DDOT":0},{"OBJECT_NAME":"STARLINK-5366","OBJECT_ID":"2023-015BC","EPOCH":"2026-03-09T22:00:01.999584","MEAN_MOTION":15.10656618,"ECCENTRICITY":0.0001153,"INCLINATION":43,"RA_OF_ASC_NODE":337.0237,"ARG_OF_PERICENTER":313.1133,"MEAN_ANOMALY":150.3814,"EPHEMERIS_TYPE":0,"CLASSIFICATION_TYPE":"U","NORAD_CAT_ID":55499,"ELEMENT_SET_NO":999,"REV_AT_EPOCH":573,"BSTAR":0.0027116934,"MEAN_MOTION_DOT":0.00045719,"MEAN_MOTION_DDOT":0}]
